NORAD_CAT_ID,OBJECT_NAME,OBJECT_TYPE,EPOCH,MEAN_MOTION,ECCENTRICITY,INCLINATION,RA_OF_ASC_NODE,ARG_OF_PERICENTER,MEAN_ANOMALY,BSTAR,MEAN_MOTION_DOT,MEAN_MOTION_DDOT,TLE_LINE0,TLE_LINE1,TLE_LINE2,SEMIMAJOR_AXIS,PERIOD,APOGEE,PERIGEE,DECAYED
53730.0,STARLINK-4641,PAYLOAD,2022-11-05 14:00:01,15.28163172,0.000165,53.2166,331.9501,44.7799,216.3412,-0.045744,-0.01157667,0.0,0 STARLINK-4641,1 53730U 22107AG  22309.58335648 -.01157667  00000-0 -45744-1 0  9998,2 53730  53.2166 331.9501 0001650  44.7799 216.3412 15.28163172  1306,6859.44,94.231,482.437,480.174,0.0
53730.0,STARLINK-4641,PAYLOAD,2022-11-05 22:00:01,15.27344376,0.0001678,53.2169,330.4079,39.1086,256.313,-0.046584,-0.01150364,0.0,0 STARLINK-4641,1 53730U 22107AG  22309.91668981 -.01150364  00000-0 -46584-1 0  9994,2 53730  53.2169 330.4079 0001678  39.1086 256.3130 15.27344376  1307,6861.892,94.281,484.908,482.605,0.0
53730.0,STARLINK-4641,PAYLOAD,2022-11-06 06:00:00,15.26531176,0.0001511,53.2169,328.87,47.4717,281.2054,-0.047819,-0.01167235,0.0,0 STARLINK-4641,1 53730U 22107AG  22310.25001157 -.01167235  00000-0 -47819-1 0  9996,2 53730  53.2169 328.8700 0001511  47.4717 281.2054 15.26531176  9842,6864.328,94.332,487.231,485.156,0.0
53730.0,STARLINK-4641,PAYLOAD,2022-11-06 14:00:01,15.25735967,0.0001654,53.2164,327.3342,37.8098,323.198,-0.050051,-0.01190609,0.0,0 STARLINK-4641,1 53730U 22107AG  22310.58334491 -.01190609  00000-0 -50051-1 0  9995,2 53730  53.2164 327.3342 0001654  37.8098 323.1980 15.25735967  1317,6866.7130000000025,94.381,489.714,487.443,0.0
53730.0,STARLINK-4641,PAYLOAD,2022-11-07 08:00:01,15.23875404,0.0001747,53.2171,323.8838,50.8597,109.3572,-0.051066,-0.01151718,0.0,0 STARLINK-4641,1 53730U 22107AG  22311.33334491 -.01151718  00000-0 -51066-1 0  9994,2 53730  53.2171 323.8838 0001747  50.8597 109.3572 15.23875404 10015,6872.301,94.496,495.367,492.966,0.0
53730.0,STARLINK-4641,PAYLOAD,2022-11-07 22:00:00,15.22450226,0.0001706,53.2173,321.2053,42.746,77.8667,-0.053206,-0.01150136,0.0,0 STARLINK-4641,1 53730U 22107AG  22311.91667824 -.01150136  00000-0 -53206-1 0  9998,2 53730  53.2173 321.2053 0001706  42.7460  77.8667 15.22450226  1308,6876.59,94.584,499.628,497.281,0.0
53730.0,STARLINK-4641,PAYLOAD,2022-11-08 00:00:02,15.22272818,0.000251,53.2164,320.8225,287.4553,290.1598,-0.054876,-0.01177855,0.0,0 STARLINK-4641,1 53730U 22107AG  22312.00002315 -.01177855  00000-0 -54876-1 0  9998,2 53730  53.2164 320.8225 0002510 287.4553 290.1598 15.22272818 10110,6877.124,94.595,500.715,497.263,0.0
53730.0,STARLINK-4641,PAYLOAD,2022-11-08 10:00:01,15.21229508,0.0001623,53.2175,318.9175,41.3313,300.1551,-0.05511,-0.01149068,0.0,0 STARLINK-4641,1 53730U 22107AG  22312.41668981 -.01149068  00000-0 -55110-1 0  9997,2 53730  53.2175 318.9175 0001623  41.3313 300.1551 15.21229508 10173,6880.268,94.66,503.25,501.016,0.0
53730.0,STARLINK-4641,PAYLOAD,2022-11-08 14:00:01,15.20842298,0.0002011,53.2164,318.154,38.3619,136.1669,-0.057148,-0.01175863,0.0,0 STARLINK-4641,1 53730U 22107AG  22312.58334491 -.01175863  00000-0 -57148-1 0  9996,2 53730  53.2164 318.1540 0002011  38.3619 136.1669 15.20842298  1304,6881.436,94.684,504.685,501.917,0.0
53730.0,STARLINK-4641,PAYLOAD,2022-11-08 22:00:00,15.20038292,0.0001794,53.2167,316.6292,35.8897,164.1324,-0.059328,-0.01190881,0.0,0 STARLINK-4641,1 53730U 22107AG  22312.91667824 -.01190881  00000-0 -59328-1 0  9991,2 53730  53.2167 316.6292 0001794  35.8897 164.1324 15.20038292  1301,6883.861999999999,94.734,506.962,504.492,0.0
53730.0,STARLINK-4641,PAYLOAD,2022-11-09 06:00:00,15.19253506,0.0001614,53.2169,315.1087,53.2536,171.2717,-0.062802,-0.0122861,0.0,0 STARLINK-4641,1 53730U 22107AG  22313.25001157 -.01228610  00000-0 -62802-1 0  9993,2 53730  53.2169 315.1087 0001614  53.2536 171.2717 15.19253506 10304,6886.232,94.783,509.209,506.986,0.0
53730.0,STARLINK-4641,PAYLOAD,2022-11-09 14:00:01,15.18350522,0.0001725,53.2165,313.5896,45.1889,202.9214,-0.057552,-0.01106446,0.0,0 STARLINK-4641,1 53730U 22107AG  22313.58334491 -.01106446  00000-0 -57552-1 0  9997,2 53730  53.2165 313.5896 0001725  45.1889 202.9214 15.18350522  1303,6888.962,94.84,512.016,509.639,0.0
53730.0,STARLINK-4641,PAYLOAD,2022-11-09 22:00:01,15.17552401,0.0001706,53.2167,312.0703,42.7108,228.0177,-0.0600559999999999,-0.01126569,0.0,0 STARLINK-4641,1 53730U 22107AG  22313.91668981 -.01126569  00000-0 -60056-1 0  9999,2 53730  53.2167 312.0703 0001706  42.7108 228.0177 15.17552401 10409,6891.378000000002,94.89,514.418,512.067,0.0
53730.0,STARLINK-4641,PAYLOAD,2022-11-10 14:00:01,15.15961135,0.0001696,53.2166,309.0424,36.4477,276.3933,-0.0660559999999999,-0.01179173,0.0,0 STARLINK-4641,1 53730U 22107AG  22314.58334491 -.01179173  00000-0 -66056-1 0  9994,2 53730  53.2166 309.0424 0001696  36.4477 276.3933 15.15961135  1302,6896.199000000001,94.989,519.234,516.895,0.0
53730.0,STARLINK-4641,PAYLOAD,2022-11-10 16:00:00,15.15736036,0.0001796,53.2171,308.6641,36.1564,11.6942,-0.064618,-0.01148661,0.0,0 STARLINK-4641,1 53730U 22107AG  22314.66667824 -.01148661  00000-0 -64618-1 0  9992,2 53730  53.2171 308.6641 0001796  36.1564  11.6942 15.15736036 10523,6896.882,95.003,519.986,517.508,0.0
53730.0,STARLINK-4641,PAYLOAD,2022-11-10 22:00:00,15.15135748,0.0001853,53.217,307.5292,36.3674,296.1090000000001,-0.066564,-0.01162027,0.0,0 STARLINK-4641,1 53730U 22107AG  22314.91667824 -.01162027  00000-0 -66564-1 0  9994,2 53730  53.2170 307.5292 0001853  36.3674 296.1090 15.15135748  1303,6898.703,95.041,521.847,519.29,0.0
53730.0,STARLINK-4641,PAYLOAD,2022-11-11 14:00:01,15.13530288,0.0001917,53.2167,304.5123,32.5079,336.2833,-0.071736,-0.01193774,0.0,0 STARLINK-4641,1 53730U 22107AG  22315.58334491 -.01193774  00000-0 -71736-1 0  9999,2 53730  53.2167 304.5123 0001917  32.5079 336.2833 15.13530288 10663,6903.581,95.142,526.77,524.123,0.0
53730.0,STARLINK-4641,PAYLOAD,2022-11-11 22:00:00,15.12685998,0.0001844,53.2169,303.0046,32.8581,352.6437,-0.070517,-0.01149581,0.0,0 STARLINK-4641,1 53730U 22107AG  22315.91667824 -.01149581  00000-0 -70517-1 0  9998,2 53730  53.2169 303.0046 0001844  32.8581 352.6437 15.12685998  1304,6906.15,95.195,529.288,526.741,0.0
53730.0,STARLINK-4641,PAYLOAD,2022-11-12 06:00:00,15.11890496,0.0001868,53.2171,301.5016,36.2271,4.9828,-0.073808,-0.01174522,0.0,0 STARLINK-4641,1 53730U 22107AG  22316.25001157 -.01174522  00000-0 -73808-1 0  9996,2 53730  53.2171 301.5016 0001868  36.2271   4.9828 15.11890496 10768,6908.571999999999,95.245,531.727,529.146,0.0
53730.0,STARLINK-4641,PAYLOAD,2022-11-12 14:00:01,15.11091873,0.0002007,53.2167,299.9988,32.3643,23.5791,-0.076976,-0.01196037,0.0,0 STARLINK-4641,1 53730U 22107AG  22316.58334491 -.01196037  00000-0 -76976-1 0  9996,2 53730  53.2167 299.9988 0002007  32.3643  23.5791 15.11091873  1305,6911.005999999999,95.295,534.258,531.484,0.0
53730.0,STARLINK-4641,PAYLOAD,2022-11-12 22:00:00,15.1034116,0.0001685,53.2169,298.497,15.8388,53.8348,-0.084643,-0.01296802,0.0,0 STARLINK-4641,1 53730U 22107AG  22316.91667824 -.01296802  00000-0 -84643-1 0  9993,2 53730  53.2169 298.4970 0001685  15.8388  53.8348 15.10341160  1305,6913.295999999999,95.343,536.326,533.996,0.0
53730.0,STARLINK-4641,PAYLOAD,2022-11-13 06:00:02,15.09364967,0.0001544,53.2173,297.0001,39.854,42.6984,-0.043585,-0.00659058,0.0,0 STARLINK-4641,1 53730U 22107AG  22317.25002315 -.00659058  00000-0 -43585-1 0  9994,2 53730  53.2173 297.0001 0001544  39.8540  42.6984 15.09364967 10917,6916.276,95.404,539.2090000000002,537.073,0.0
53730.0,STARLINK-4641,PAYLOAD,2022-11-13 14:00:01,15.08934694,0.00016,53.2152,295.4982,44.8257,49.5358,-0.0078922,-0.00124059,0.0,0 STARLINK-4641,1 53730U 22107AG  22317.58334491 -.00124059  00000-0 -78922-2 0  9995,2 53730  53.2152 295.4982 0001600  44.8257  49.5358 15.08934694  1301,6917.590999999999,95.432,540.563,538.349,0.0
53730.0,STARLINK-4641,PAYLOAD,2022-11-13 22:00:00,15.08876928,0.0001482,53.2154,294.0005,51.1995,54.8277,-0.00087482,-0.00014198,0.0,0 STARLINK-4641,1 53730U 22107AG  22317.91667824 -.00014198  00000-0 -87482-3 0  9995,2 53730  53.2154 294.0005 0001482  51.1995  54.8277 15.08876928  1306,6917.768,95.435,540.658,538.607,0.0
53730.0,STARLINK-4641,PAYLOAD,2022-11-14 14:00:01,15.08845689,0.0001727,53.2154,291.0093,50.6753,78.5833,-0.0046805,-0.00074026,0.0,0 STARLINK-4641,1 53730U 22107AG  22318.58334491 -.00074026  00000-0 -46805-2 0  9999,2 53730  53.2154 291.0093 0001727  50.6753  78.5833 15.08845689 11119,6917.863,95.437,540.923,538.533,0.0
53730.0,STARLINK-4641,PAYLOAD,2022-11-14 22:00:00,15.08766368,0.0001505,53.2164,289.5134,55.1813,85.6524,0.0062876999999999,0.00101014,0.0,0 STARLINK-4641,1 53730U 22107AG  22318.91667824  .00101014  00000-0  62877-2 0  9998,2 53730  53.2164 289.5134 0001505  55.1813  85.6524 15.08766368  1301,6918.105,95.442,541.012,538.929,0.0
53730.0,STARLINK-4641,PAYLOAD,2022-11-15 08:00:01,15.08792176,0.0001792,53.2154,287.6446,49.25899999999999,196.0893,0.0032257,0.00051356,0.0,0 STARLINK-4641,1 53730U 22107AG  22319.33335648  .00051356  00000-0  32257-2 0  9993,2 53730  53.2154 287.6446 0001792  49.2590 196.0893 15.08792176 11223,6918.026999999999,95.441,541.131,538.6519999999998,0.0
53730.0,STARLINK-4641,PAYLOAD,2022-11-15 14:00:01,15.08833537,0.0001676999999999,53.2144,286.5198,52.8236,111.1191,-0.0012442,-0.00020032,0.0,0 STARLINK-4641,1 53730U 22107AG  22319.58334491 -.00020032  00000-0 -12442-2 0  9998,2 53730  53.2144 286.5198 0001677  52.8236 111.1191 15.08833537  1307,6917.9,95.438,540.925,538.605,0.0
53730.0,STARLINK-4641,PAYLOAD,2022-11-15 22:00:00,15.08829897,0.0001636999999999,53.2146,285.0228,60.0255,115.4931,0.0015186,0.00023957,0.0,0 STARLINK-4641,1 53730U 22107AG  22319.91667824  .00023957  00000-0  15186-2 0  9999,2 53730  53.2146 285.0228 0001637  60.0255 115.4931 15.08829897 11310,6917.911,95.438,540.909,538.644,0.0
